CCSDS_OMM_VERS = 2.0
CREATION_DATE  = 
ORIGINATOR     = 

OBJECT_NAME    = STARLINK-36638
OBJECT_ID      = 2026-018F
CENTER_NAME    = EARTH
REF_FRAME      = TEME
TIME_SYSTEM    = UTC
MEAN_ELEMENT_THEORY = SGP/SGP4

EPOCH          = 2026-02-21T03:11:32.902944
MEAN_MOTION    = 15.80977498
ECCENTRICITY   = .00021242
INCLINATION    = 97.2824
RA_OF_ASC_NODE = 117.1574
ARG_OF_PERICENTER = 141.1779
MEAN_ANOMALY   = 218.9642

EPHEMERIS_TYPE = 0
CLASSIFICATION_TYPE = U
NORAD_CAT_ID   = 67594
ELEMENT_SET_NO = 999
REV_AT_EPOCH   = 470
BSTAR          = .15515991E-2
MEAN_MOTION_DOT = .310156E-2
MEAN_MOTION_DDOT = 0

CCSDS_OMM_VERS = 2.0
CREATION_DATE  = 
ORIGINATOR     = 

OBJECT_NAME    = STARLINK-36628
OBJECT_ID      = 2026-018G
CENTER_NAME    = EARTH
REF_FRAME      = TEME
TIME_SYSTEM    = UTC
MEAN_ELEMENT_THEORY = SGP/SGP4

EPOCH          = 2026-02-21T03:42:33.291072
MEAN_MOTION    = 15.75324570
ECCENTRICITY   = .00014952
INCLINATION    = 97.2833
RA_OF_ASC_NODE = 117.1275
ARG_OF_PERICENTER = 122.2796
MEAN_ANOMALY   = 237.8614

EPHEMERIS_TYPE = 0
CLASSIFICATION_TYPE = U
NORAD_CAT_ID   = 67595
ELEMENT_SET_NO = 999
REV_AT_EPOCH   = 470
BSTAR          = .18825669E-2
MEAN_MOTION_DOT = .292185E-2
MEAN_MOTION_DDOT = 0

CCSDS_OMM_VERS = 2.0
CREATION_DATE  = 
ORIGINATOR     = 

OBJECT_NAME    = STARLINK-36629
OBJECT_ID      = 2026-018H
CENTER_NAME    = EARTH
REF_FRAME      = TEME
TIME_SYSTEM    = UTC
MEAN_ELEMENT_THEORY = SGP/SGP4

EPOCH          = 2026-02-21T06:56:41.192160
MEAN_MOTION    = 15.75278461
ECCENTRICITY   = .0000551
INCLINATION    = 97.2836
RA_OF_ASC_NODE = 117.2491
ARG_OF_PERICENTER = 55.8589
MEAN_ANOMALY   = 304.2728

EPHEMERIS_TYPE = 0
CLASSIFICATION_TYPE = U
NORAD_CAT_ID   = 67596
ELEMENT_SET_NO = 999
REV_AT_EPOCH   = 472
BSTAR          = .15706E-2
MEAN_MOTION_DOT = .241823E-2
MEAN_MOTION_DDOT = 0

CCSDS_OMM_VERS = 2.0
CREATION_DATE  = 
ORIGINATOR     = 

OBJECT_NAME    = STARLINK-36384
OBJECT_ID      = 2026-018J
CENTER_NAME    = EARTH
REF_FRAME      = TEME
TIME_SYSTEM    = UTC
MEAN_ELEMENT_THEORY = SGP/SGP4

EPOCH          = 2026-02-21T03:07:18.349536
MEAN_MOTION    = 15.81030357
ECCENTRICITY   = .00021924
INCLINATION    = 97.2828
RA_OF_ASC_NODE = 117.1609
ARG_OF_PERICENTER = 129.7147
MEAN_ANOMALY   = 230.4315

EPHEMERIS_TYPE = 0
CLASSIFICATION_TYPE = U
NORAD_CAT_ID   = 67597
ELEMENT_SET_NO = 999
REV_AT_EPOCH   = 470
BSTAR          = .22290573E-2
MEAN_MOTION_DOT = .45424E-2
MEAN_MOTION_DDOT = 0

CCSDS_OMM_VERS = 2.0
CREATION_DATE  = 
ORIGINATOR     = 

OBJECT_NAME    = STARLINK-36358
OBJECT_ID      = 2026-018K
CENTER_NAME    = EARTH
REF_FRAME      = TEME
TIME_SYSTEM    = UTC
MEAN_ELEMENT_THEORY = SGP/SGP4

EPOCH          = 2026-02-21T03:45:05.678208
MEAN_MOTION    = 15.75356053
ECCENTRICITY   = .00017567
INCLINATION    = 97.2835
RA_OF_ASC_NODE = 117.1247
ARG_OF_PERICENTER = 129.5554
MEAN_ANOMALY   = 230.5866

EPHEMERIS_TYPE = 0
CLASSIFICATION_TYPE = U
NORAD_CAT_ID   = 67598
ELEMENT_SET_NO = 999
REV_AT_EPOCH   = 470
BSTAR          = .23291753E-2
MEAN_MOTION_DOT = .365169E-2
MEAN_MOTION_DDOT = 0

CCSDS_OMM_VERS = 2.0
CREATION_DATE  = 
ORIGINATOR     = 

OBJECT_NAME    = STARLINK-36582
OBJECT_ID      = 2026-018L
CENTER_NAME    = EARTH
REF_FRAME      = TEME
TIME_SYSTEM    = UTC
MEAN_ELEMENT_THEORY = SGP/SGP4

EPOCH          = 2026-02-21T12:00:01.999296
MEAN_MOTION    = 15.75186071
ECCENTRICITY   = .0001455
INCLINATION    = 97.2845
RA_OF_ASC_NODE = 117.5231
ARG_OF_PERICENTER = 91.5526
MEAN_ANOMALY   = 144.3151

EPHEMERIS_TYPE = 0
CLASSIFICATION_TYPE = U
NORAD_CAT_ID   = 67599
ELEMENT_SET_NO = 999
REV_AT_EPOCH   = 485
BSTAR          = -.31787E-3
MEAN_MOTION_DOT = -.47273E-3
MEAN_MOTION_DDOT = 0

CCSDS_OMM_VERS = 2.0
CREATION_DATE  = 
ORIGINATOR     = 

OBJECT_NAME    = STARLINK-36640
OBJECT_ID      = 2026-018M
CENTER_NAME    = EARTH
REF_FRAME      = TEME
TIME_SYSTEM    = UTC
MEAN_ELEMENT_THEORY = SGP/SGP4

EPOCH          = 2026-02-21T03:50:40.915392
MEAN_MOTION    = 15.75345312
ECCENTRICITY   = .00012751
INCLINATION    = 97.2840
RA_OF_ASC_NODE = 117.1196
ARG_OF_PERICENTER = 116.1061
MEAN_ANOMALY   = 244.0335

EPHEMERIS_TYPE = 0
CLASSIFICATION_TYPE = U
NORAD_CAT_ID   = 67600
ELEMENT_SET_NO = 999
REV_AT_EPOCH   = 470
BSTAR          = .20603424E-2
MEAN_MOTION_DOT = .32118E-2
MEAN_MOTION_DDOT = 0

CCSDS_OMM_VERS = 2.0
CREATION_DATE  = 
ORIGINATOR     = 

OBJECT_NAME    = STARLINK-36635
OBJECT_ID      = 2026-018N
CENTER_NAME    = EARTH
REF_FRAME      = TEME
TIME_SYSTEM    = UTC
MEAN_ELEMENT_THEORY = SGP/SGP4

EPOCH          = 2026-02-21T12:00:01.999296
MEAN_MOTION    = 15.75108715
ECCENTRICITY   = .0001617
INCLINATION    = 97.2840
RA_OF_ASC_NODE = 117.5531
ARG_OF_PERICENTER = 91.9362
MEAN_ANOMALY   = 213.9280

EPHEMERIS_TYPE = 0
CLASSIFICATION_TYPE = U
NORAD_CAT_ID   = 67601
ELEMENT_SET_NO = 999
REV_AT_EPOCH   = 475
BSTAR          = .7922E-3
MEAN_MOTION_DOT = .119277E-2
MEAN_MOTION_DDOT = 0

CCSDS_OMM_VERS = 2.0
CREATION_DATE  = 
ORIGINATOR     = 

OBJECT_NAME    = STARLINK-36631
OBJECT_ID      = 2026-018P
CENTER_NAME    = EARTH
REF_FRAME      = TEME
TIME_SYSTEM    = UTC
MEAN_ELEMENT_THEORY = SGP/SGP4

EPOCH          = 2026-02-21T02:59:47.560128
MEAN_MOTION    = 15.80969974
ECCENTRICITY   = .00015063
INCLINATION    = 97.2836
RA_OF_ASC_NODE = 117.1677
ARG_OF_PERICENTER = 89.2013
MEAN_ANOMALY   = 270.9428

EPHEMERIS_TYPE = 0
CLASSIFICATION_TYPE = U
NORAD_CAT_ID   = 67602
ELEMENT_SET_NO = 999
REV_AT_EPOCH   = 470
BSTAR          = .14889292E-2
MEAN_MOTION_DOT = .297067E-2
MEAN_MOTION_DDOT = 0

CCSDS_OMM_VERS = 2.0
CREATION_DATE  = 
ORIGINATOR     = 

OBJECT_NAME    = STARLINK-36626
OBJECT_ID      = 2026-018Q
CENTER_NAME    = EARTH
REF_FRAME      = TEME
TIME_SYSTEM    = UTC
MEAN_ELEMENT_THEORY = SGP/SGP4

EPOCH          = 2026-02-21T03:14:05.660736
MEAN_MOTION    = 15.75350141
ECCENTRICITY   = .00014676
INCLINATION    = 97.2831
RA_OF_ASC_NODE = 117.1551
ARG_OF_PERICENTER = 137.8697
MEAN_ANOMALY   = 222.2681

EPHEMERIS_TYPE = 0
CLASSIFICATION_TYPE = U
NORAD_CAT_ID   = 67603
ELEMENT_SET_NO = 999
REV_AT_EPOCH   = 470
BSTAR          = .23243211E-2
MEAN_MOTION_DOT = .364279E-2
MEAN_MOTION_DDOT = 0

CCSDS_OMM_VERS = 2.0
CREATION_DATE  = 
ORIGINATOR     = 

OBJECT_NAME    = STARLINK-36605
OBJECT_ID      = 2026-018R
CENTER_NAME    = EARTH
REF_FRAME      = TEME
TIME_SYSTEM    = UTC
MEAN_ELEMENT_THEORY = SGP/SGP4

EPOCH          = 2026-02-21T03:39:30.333024
MEAN_MOTION    = 15.75287028
ECCENTRICITY   = .00014955
INCLINATION    = 97.2833
RA_OF_ASC_NODE = 117.1302
ARG_OF_PERICENTER = 122.8727
MEAN_ANOMALY   = 237.2682

EPHEMERIS_TYPE = 0
CLASSIFICATION_TYPE = U
NORAD_CAT_ID   = 67604
ELEMENT_SET_NO = 999
REV_AT_EPOCH   = 470
BSTAR          = .12826199E-2
MEAN_MOTION_DOT = .19647E-2
MEAN_MOTION_DDOT = 0

CCSDS_OMM_VERS = 2.0
CREATION_DATE  = 
ORIGINATOR     = 

OBJECT_NAME    = STARLINK-36281
OBJECT_ID      = 2026-018S
CENTER_NAME    = EARTH
REF_FRAME      = TEME
TIME_SYSTEM    = UTC
MEAN_ELEMENT_THEORY = SGP/SGP4

EPOCH          = 2026-02-21T02:58:00.780096
MEAN_MOTION    = 15.80993461
ECCENTRICITY   = .00015174
INCLINATION    = 97.2839
RA_OF_ASC_NODE = 117.1688
ARG_OF_PERICENTER = 104.2792
MEAN_ANOMALY   = 255.8645

EPHEMERIS_TYPE = 0
CLASSIFICATION_TYPE = U
NORAD_CAT_ID   = 67605
ELEMENT_SET_NO = 999
REV_AT_EPOCH   = 470
BSTAR          = .23149755E-2
MEAN_MOTION_DOT = .471947E-2
MEAN_MOTION_DDOT = 0

