STARLINK-36638          
1 67594U 26018F   26052.13301971  .00310156  00000+0  15516-2 0  9993
2 67594  97.2824 117.1574 0002124 141.1779 218.9642 15.80977498  4701
STARLINK-36628          
1 67595U 26018G   26052.15455198  .00292185  00000+0  18826-2 0  9995
2 67595  97.2833 117.1275 0001495 122.2796 237.8614 15.75324570  4709
STARLINK-36629          
1 67596U 26018H   26052.28936565  .00241823  00000+0  15706-2 0  9999
2 67596  97.2836 117.2491 0000551  55.8589 304.2728 15.75278461  4721
STARLINK-36384          
1 67597U 26018J   26052.13007349  .00454240  00000+0  22291-2 0  9999
2 67597  97.2828 117.1609 0002192 129.7147 230.4315 15.81030357  4704
STARLINK-36358          
1 67598U 26018K   26052.15631572  .00365169  00000+0  23292-2 0  9996
2 67598  97.2835 117.1247 0001756 129.5554 230.5866 15.75356053  4705
STARLINK-36582          
1 67599U 26018L   26052.50002314 -.00047273  00000+0 -31787-3 0  9996
2 67599  97.2845 117.5231 0001455  91.5526 144.3151 15.75186071  4853
STARLINK-36640          
1 67600U 26018M   26052.16019578  .00321180  00000+0  20603-2 0  9995
2 67600  97.2840 117.1196 0001275 116.1061 244.0335 15.75345312  4706
STARLINK-36635          
1 67601U 26018N   26052.50002314  .00119277  00000+0  79220-3 0  9996
2 67601  97.2840 117.5531 0001617  91.9362 213.9280 15.75108715  4751
STARLINK-36631          
1 67602U 26018P   26052.12485602  .00297067  00000+0  14889-2 0  9993
2 67602  97.2836 117.1677 0001506  89.2013 270.9428 15.80969974  4704
STARLINK-36626          
1 67603U 26018Q   26052.13478774  .00364279  00000+0  23243-2 0  9991
2 67603  97.2831 117.1551 0001467 137.8697 222.2681 15.75350141  4700
STARLINK-36605          
1 67604U 26018R   26052.15243441  .00196470  00000+0  12826-2 0  9996
2 67604  97.2833 117.1302 0001495 122.8727 237.2682 15.75287028  4706
STARLINK-36281          
1 67605U 26018S   26052.12362014  .00471947  00000+0  23150-2 0  9999
2 67605  97.2839 117.1688 0001517 104.2792 255.8645 15.80993461  4707
